0 AMC-5 (GE-5)
1 25516U 98063B   21281.77405140 -.00000275  00000-0  00000-0 0  9992
2 25516   8.1773  52.1890 0004891  39.0704 326.7776  0.99333889 83828
0 BONUM 1
1 25546U 98068A   21281.84321539 -.00000144  00000-0  00000+0 0  9991
2 25546   7.2889  59.2699 0004654 356.8026  13.9518  0.99037059 83579
0 INTELSAT 6B (PAS 6B)
1 25585U 98075A   21281.70759118 -.00000301  00000-0  00000-0 0  9991
2 25585   9.6576  42.0216 0017934 120.7441 258.3278  0.99156836 83012
0 JCSAT 6
1 25630U 99006A   21281.84862293 -.00000309  00000-0  00000+0 0  9998
2 25630   5.6578  70.7248 0011085 176.7886 211.7171  1.00270077 82830
0 ARABSAT 3A
1 25638U 99009A   21281.62768102  .00000082  00000-0  00000-0 0  9997
2 25638   9.1698  44.0303 0003109 353.2637  72.1620  1.00130542 82818
0 SKYNET 4E
1 25639U 99009B   21282.02202117 -.00000034  00000-0  00000+0 0  9999
2 25639  11.1217  18.2752 0003294 199.4192 166.8387  1.00271674 82858
0 RADUGA 1-4
1 25642U 99010A   21281.79436712 -.00000206  00000-0  00000-0 0  9990
2 25642  15.0989  15.9129 0001807 260.3504 114.4665  1.00194730 82783
0 ASIASAT 3S
1 25657U 99013A   21281.90893406 -.00000222  00000-0  00000-0 0  9997
2 25657   5.8346  69.2665 0002595  97.3773 326.2411  1.00270630 82653
0 INSAT 2E (APR-1)
1 25666U 99016A   21281.49875281  .00000101  00000-0  00000-0 0  9990
2 25666   8.0959  52.3891 0006510 272.5624  84.9161  0.99655702 34364
0 NIMIQ 1
1 25740U 99027A   21281.80431611 -.00000200  00000-0  00000+0 0  9995
2 25740   2.2472  89.6166 0004542 113.3506  17.7471  1.00272525 82031
0 TELKOM 1
1 25880U 99042A   21281.90824215 -.00000213  00000-0  00000-0 0  9999
2 25880   3.4183  84.6166 0014455 204.9711 143.1776  1.00272438 81216
0 ABS 7 (KOREASAT 3)
1 25894U 99046A   21281.82821387  .00000154  00000-0  00000-0 0  9999
2 25894   2.1300  90.2385 0003874 100.9535 158.0281  1.00271618 79959
0 YAMAL 101
1 25896U 99047A   21281.56699550 -.00000182  00000-0  00000-0 0  9990
2 25896  14.3107  12.4834 0089933  21.2760 351.2920  0.99875583 80701
0 YAMAL 102
1 25897U 99047B   21281.50142008  .00000103  00000-0  00000-0 0  9998
2 25897  12.3371  24.6081 0003771 349.3518  41.0171  0.99984359 80875
0 GALAXY 27 (TELSTAR 7)
1 25922U 99052A   21281.84661691 -.00000238  00000-0  00000-0 0  9994
2 25922   6.4260  64.9833 0008454 318.0800  65.0713  0.99019797 34307
0 ABS 6 (LMI 1)
1 25924U 99053A   21281.85324549 -.00000122  00000-0  00000+0 0  9997
2 25924   0.0486  66.6805 0001651 144.3919 272.8025  1.00271281 80676
0 AMC-4 (GE-4)
1 25954U 99060A   21281.65107381  .00000086  00000-0  00000-0 0  9998
2 25954   0.8858  94.4686 0002871  99.7233 282.8098  1.00272594 26380
0 UFO 10 (USA 146)
1 25967U 99063A   21281.86527477 -.00000183  00000-0  00000-0 0  9999
2 25967   8.4099  34.2129 0004563 152.7726 119.9944  1.00269691 80177
0 GALAXY 11
1 26038U 99071A   21281.58766622 -.00000163  00000-0  00000-0 0  9992
2 26038   2.3868  90.7489 0001334 333.0880  72.0840  1.00271062 79917
0 USA 148
1 26052U 00001A   21281.58104976  .00000041  00000-0  00000+0 0  9994
2 26052   9.1434  43.8700 0001272 130.4567 232.5755  1.00273503 14452
0 GALAXY 10R
1 26056U 00002A   21281.61716084 -.00000190  00000-0  00000-0 0  9999
2 26056   9.4815  42.5467 0005859 102.3664  83.9665  0.99646430 79267
0 HISPASAT 1C
1 26071U 00007A   21281.51675786 -.00000046  00000-0  00000+0 0  9992
2 26071   4.1440  80.7708 0003104 137.8921 256.0856  0.99199858 79297
0 GARUDA 1
1 26089U 00011A   21281.78556420 -.00000013  00000-0  00000-0 0  9993
2 26089   5.4002  84.9836 0002310  66.1020 329.1830  0.99922341 24558
0 ASIASTAR
1 26107U 00016A   21281.90350280 -.00000334  00000-0  00000+0 0  9994
2 26107   5.0929  73.8691 0003968 123.8515 250.3224  1.00273229 78984
0 INSAT 3B
1 26108U 00016B   21281.93786535  .00000014  00000-0  00000-0 0  9999
2 26108   7.3225  58.3861 0004495 167.1851 148.4285  0.99662046 34360
0 GALAXY 4R
1 26298U 00020A   21281.28905701 -.00000286  00000-0  00000-0 0  9992
2 26298  10.5452  35.3626 0004237 150.1524 243.5479  0.99837088 78523
0 GOES 11
1 26352U 00022A   21281.63820844 -.00000033  00000-0  00000-0 0  9998
2 26352   8.1519  61.2734 0001866 151.0153 236.0783  0.99043699 35516
0 USA 149
1 26356U 00024A   21281.63790748  .00000099  00000-0  00000-0 0  9994
2 26356  11.8992  23.1463 0001946 171.1431 248.1644  1.00255495 15748
0 EUTE 36A (EUTE W4)
1 26369U 00028A   21278.19388601 -.00000100  00000-0  00000-0 0  9994
2 26369   4.3945  77.3904 0014332 176.8946 177.1292  1.00274211 78223
0 GORIZONT 33
1 26372U 00029A   21281.62603840  .00000067  00000-0  00000-0 0  9997
2 26372  12.9996  19.0249 0004033  63.5457  22.0366  1.00370832 78258
0 FENGYUN 2B
1 26382U 00032A   21280.97348601  .00000114  00000-0  00000-0 0  9993
2 26382  11.5993  28.5006 0002682 355.3046  11.2681  1.00087851 77784
0 TDRS 8
1 26388U 00034A   21281.91026909 -.00000228  00000-0  00000+0 0  9996
2 26388   9.9720  44.2602 0016244 334.2708  55.8187  1.00263750 78001
0 COSMOS 2371
1 26394U 00036A   21281.80103281 -.00000115  00000-0  00000-0 0  9998
2 26394  13.0487  19.7651 0005044  81.1562 281.1761  1.00261434 77870
0 INTELSAT 9 (PAS 9)
1 26451U 00043A   21281.86587670 -.00000287  00000-0  00000+0 0  9993
2 26451   6.6807  62.8827 0002821 138.5214  78.0593  1.00271926 77674
0 BRAZILSAT B4
1 26469U 00046A   21281.78329653 -.00000220  00000-0  00000-0 0  9999
2 26469   5.1491  74.7636 0003687 150.2328 242.9654  0.99168828 77789
0 RADUGA 1-5
1 26477U 00049A   21281.76916719 -.00000294  00000-0  00000-0 0  9995
2 26477  12.9781  20.3237 0005561  51.4165 320.1991  1.00227130 77254
0 AMC-7 (GE-7)
1 26495U 00054B   21281.75506595 -.00000034  00000-0  00000-0 0  9999
2 26495   2.5356  90.0122 0005672  69.3840 327.5192  0.99135284 76994
0 NSS 11 (AAP-1)
1 26554U 00059A   21282.07190135  .00000023  00000-0  00000+0 0  9991
2 26554   0.0479  69.2093 0002565 126.9458  23.6569  1.00271535 77005
0 NSAT 110
1 26559U 00060A   21281.89221868 -.00000277  00000-0  00000+0 0  9997
2 26559   2.4208  89.3167 0007253  17.5787   1.8365  0.99182197 76834
0 USA 153
1 26575U 00065A   21281.83000569 -.00000323  00000-0  00000+0 0  9999
2 26575   8.6778  47.1911 0001196 115.0074 288.7506  1.00273824 14447
0 AMC-6 (GE-6)
1 26580U 00067A   21281.72206939  .00000102  00000-0  00000-0 0  9999
2 26580   0.0475  69.0673 0002637 123.7165 305.7475  1.00271383 76754
0 INTELSAT 12 (PAS 12)
1 26590U 00068A   21282.12144125  .00000011  00000-0  00000+0 0  9992
2 26590   4.0624  81.9306 0002251  99.9768 304.0465  1.00271951 76635
0 INTELSAT 1R (PAS 1R)
1 26608U 00072A   21281.85289661 -.00000138  00000-0  00000-0 0  9993
2 26608   3.8270  82.9196 0000863 229.3154 169.6282  1.00272517 24153
0 ANIK F1
1 26624U 00076A   21281.65621969 -.00000063  00000-0  00000-0 0  9991
2 26624   0.7999  95.6688 0007291  58.7677 350.1235  1.00271503 25978
0 ASTRA 2D
1 26638U 00081A   21281.67273262  .00000131  00000-0  00000-0 0  9998
2 26638   6.7650  61.9272 0001852 163.3023  58.2132  1.00272678 35734
0 AMC-8 (GE-8)
1 26639U 00081B   21281.65107381  .00000087  00000-0  00000-0 0  9995
2 26639   1.8154  91.1817 0002675 112.0713 273.6506  1.00271625 76162
0 CHINASAT 31 (BEIDOU 1B)
1 26643U 00082A   21281.64642736 -.00000287  00000-0  00000-0 0  9991
2 26643  10.1552  38.4295 0084663  46.1801 321.3507  0.99255905 35086
0 SKYNET 4F
1 26695U 01005B   21281.63482882  .00000017  00000-0  00000-0 0  9997
2 26695  10.4191  27.4531 0004245 134.0013 294.8183  0.99147536 75635
0 USA 157
1 26715U 01009A   21281.51250424  .00000015  00000-0  00000+0 0  9993
2 26715   9.7739  28.2885 0002484 178.7664 230.5311  1.00273909 14470
0 EUTE 28A (EB 1)
1 26719U 01011A   21281.65150990  .00000077  00000-0  00000-0 0  9991
2 26719   3.0950  85.0348 0002749 117.0602 277.0997  1.00271993 75376
0 BSAT-2A
1 26720U 01011B   21281.64209032 -.00000149  00000-0  00000-0 0  9995
2 26720   7.0839  60.5571 0004070 132.9098 235.0474  0.99181149 74999
0 XM-2
1 26724U 01012A   21281.58042709  .00000073  00000-0  00000-0 0  9994
2 26724   5.5543  71.4755 0007840  58.9885 326.6814  0.99080774 25276
0 EKRAN 21
1 26736U 01014A   21281.62827212 -.00000128  00000-0  00000-0 0  9996
2 26736  13.1940  26.1372 0032027  33.7073 185.2362  0.99592355 74872
0 XM-1
1 26761U 01018A   21281.81888153 -.00000219  00000-0  00000-0 0  9991
2 26761   4.6357  78.3704 0001597 234.5463 346.2641  0.99009207 29167
0 INTELSAT 10 (PAS 10)
1 26766U 01019A   21281.78521535  .00000035  00000-0  00000-0 0  9996
2 26766   4.9835  75.4102 0003189 141.0321 261.6799  1.00272066 28453
0 INTELSAT 901
1 26824U 01024A   21281.81609056 -.00000204  00000-0  00000+0 0  9994
2 26824   0.0311  88.3793 0000975 109.8664  85.7443  1.00270984 74410
0 ASTRA 2C
1 26853U 01025A   21281.80710708 -.00000258  00000-0  00000-0 0  9993
2 26853   3.9566  81.5304 0002526 114.9851  39.2118  1.00268069 27870
0 ARTEMIS
1 26863U 01029A   21281.72537016 -.00000188  00000-0  00000-0 0  9990
2 26863  13.8784  19.2046 0012654 115.0675 251.7853  0.99289392 26856
0 GOES 12
1 26871U 01031A   21281.02966019  .00000002  00000-0  00000-0 0  9998
2 26871   9.0674  49.7847 0004582 299.7685  68.8968  0.99137581 73789
0 USA 159
1 26880U 01033A   21281.42913187 -.00000295  00000-0  00000+0 0  9996
2 26880  11.1991  27.3121 0001602 218.0042 237.4389  1.00273151 14449
0 COSMOS 2379
1 26892U 01037A   21281.03452878  .00000064  00000-0  00000-0 0  9999
2 26892  11.8027  25.7899 0002407 138.5160 237.9873  1.00258441 73683
0 INTELSAT 902
1 26900U 01039A   21282.18521774 -.00000284  00000-0  00000+0 0  9994
2 26900   1.7752  91.6758 0002990 106.1891 196.7679  1.00271514 73605
0 DIRECTV 4S
1 26985U 01052A   21281.65508584  .00000066  00000-0  00000-0 0  9995
2 26985   1.8718  90.9960 0003918  19.9555  27.5171  0.99260145 34078
